[
  {
    "OBJECT_NAME": "GAOFEN-1",
    "OBJECT_ID": "2013-018A",
    "EPOCH": "2025-05-06T04:25:03.802656",
    "MEAN_MOTION": 14.76538853,
    "ECCENTRICITY": 0.0018855,
    "INCLINATION": 97.9506,
    "RA_OF_ASC_NODE": 200.4316,
    "ARG_OF_PERICENTER": 134.7659,
    "MEAN_ANOMALY": 225.5089,
    "EPHEMERIS_TYPE": 0,
    "CLASSIFICATION_TYPE": "U",
    "NORAD_CAT_ID": 39150,
    "ELEMENT_SET_NO": 999,
    "REV_AT_EPOCH": 64822,
    "BSTAR": 0.00017449,
    "MEAN_MOTION_DOT": 1.169e-05,
    "MEAN_MOTION_DDOT": 0
  },
  {
    "OBJECT_NAME": "VNREDSAT 1",
    "OBJECT_ID": "2013-021B",
    "EPOCH": "2025-05-06T03:21:48.980736",
    "MEAN_MOTION": 14.64876105,
    "ECCENTRICITY": 0.0001364,
    "INCLINATION": 97.9514,
    "RA_OF_ASC_NODE": 188.923,
    "ARG_OF_PERICENTER": 89.028,
    "MEAN_ANOMALY": 271.1079,
    "EPHEMERIS_TYPE": 0,
    "CLASSIFICATION_TYPE": "U",
    "NORAD_CAT_ID": 39160,
    "ELEMENT_SET_NO": 999,
    "REV_AT_EPOCH": 64071,
    "BSTAR": 0.00018564,
    "MEAN_MOTION_DOT": 9.46e-06,
    "MEAN_MOTION_DDOT": 0
  },
  {
    "OBJECT_NAME": "ARIRANG-5 (KOMPSAT-5)",
    "OBJECT_ID": "2013-042A",
    "EPOCH": "2025-05-06T03:14:05.971776",
    "MEAN_MOTION": 15.04527773,
    "ECCENTRICITY": 0.0003828,
    "INCLINATION": 97.6206,
    "RA_OF_ASC_NODE": 313.5226,
    "ARG_OF_PERICENTER": 87.9421,
    "MEAN_ANOMALY": 272.2244,
    "EPHEMERIS_TYPE": 0,
    "CLASSIFICATION_TYPE": "U",
    "NORAD_CAT_ID": 39227,
    "ELEMENT_SET_NO": 999,
    "REV_AT_EPOCH": 64271,
    "BSTAR": 0.00023959,
    "MEAN_MOTION_DOT": 3.296e-05,
    "MEAN_MOTION_DDOT": 0
  },
  {
    "OBJECT_NAME": "SKYSAT-A",
    "OBJECT_ID": "2013-066C",
    "EPOCH": "2025-05-06T02:07:16.234176",
    "MEAN_MOTION": 15.09793852,
    "ECCENTRICITY": 0.0021157,
    "INCLINATION": 97.4376,
    "RA_OF_ASC_NODE": 182.8666,
    "ARG_OF_PERICENTER": 278.8936,
    "MEAN_ANOMALY": 80.9898,
    "EPHEMERIS_TYPE": 0,
    "CLASSIFICATION_TYPE": "U",
    "NORAD_CAT_ID": 39418,
    "ELEMENT_SET_NO": 999,
    "REV_AT_EPOCH": 62699,
    "BSTAR": 0.00026048,
    "MEAN_MOTION_DOT": 4.166e-05,
    "MEAN_MOTION_DDOT": 0
  },
  {
    "OBJECT_NAME": "DUBAISAT-2",
    "OBJECT_ID": "2013-066D",
    "EPOCH": "2025-05-06T03:28:34.034304",
    "MEAN_MOTION": 15.06090832,
    "ECCENTRICITY": 0.0011882,
    "INCLINATION": 97.4326,
    "RA_OF_ASC_NODE": 123.9296,
    "ARG_OF_PERICENTER": 357.3648,
    "MEAN_ANOMALY": 2.7514,
    "EPHEMERIS_TYPE": 0,
    "CLASSIFICATION_TYPE": "U",
    "NORAD_CAT_ID": 39419,
    "ELEMENT_SET_NO": 999,
    "REV_AT_EPOCH": 62504,
    "BSTAR": 0.0004397,
    "MEAN_MOTION_DOT": 6.376e-05,
    "MEAN_MOTION_DDOT": 0
  },
  {
    "OBJECT_NAME": "GPM-CORE",
    "OBJECT_ID": "2014-009C",
    "EPOCH": "2025-05-06T06:09:36.980064",
    "MEAN_MOTION": 15.44548591,
    "ECCENTRICITY": 0.001389,
    "INCLINATION": 64.9767,
    "RA_OF_ASC_NODE": 231.23,
    "ARG_OF_PERICENTER": 262.316,
    "MEAN_ANOMALY": 97.6403,
    "EPHEMERIS_TYPE": 0,
    "CLASSIFICATION_TYPE": "U",
    "NORAD_CAT_ID": 39574,
    "ELEMENT_SET_NO": 999,
    "REV_AT_EPOCH": 63497,
    "BSTAR": 0.00038559,
    "MEAN_MOTION_DOT": 0.00017859,
    "MEAN_MOTION_DDOT": 0
  },
  {
    "OBJECT_NAME": "SENTINEL-1A",
    "OBJECT_ID": "2014-016A",
    "EPOCH": "2025-05-06T04:34:20.103744",
    "MEAN_MOTION": 14.59199955,
    "ECCENTRICITY": 0.0001394,
    "INCLINATION": 98.1803,
    "RA_OF_ASC_NODE": 134.623,
    "ARG_OF_PERICENTER": 90.5341,
    "MEAN_ANOMALY": 269.6019,
    "EPHEMERIS_TYPE": 0,
    "CLASSIFICATION_TYPE": "U",
    "NORAD_CAT_ID": 39634,
    "ELEMENT_SET_NO": 999,
    "REV_AT_EPOCH": 59069,
    "BSTAR": 8.0834e-05,
    "MEAN_MOTION_DOT": 3.35e-06,
    "MEAN_MOTION_DDOT": 0
  },
  {
    "OBJECT_NAME": "KAZEOSAT 1",
    "OBJECT_ID": "2014-024A",
    "EPOCH": "2025-05-06T05:03:13.099392",
    "MEAN_MOTION": 14.42034273,
    "ECCENTRICITY": 0.000119,
    "INCLINATION": 98.3599,
    "RA_OF_ASC_NODE": 202.7923,
    "ARG_OF_PERICENTER": 94.8935,
    "MEAN_ANOMALY": 265.2391,
    "EPHEMERIS_TYPE": 0,
    "CLASSIFICATION_TYPE": "U",
    "NORAD_CAT_ID": 39731,
    "ELEMENT_SET_NO": 999,
    "REV_AT_EPOCH": 57995,
    "BSTAR": 0.00011471,
    "MEAN_MOTION_DOT": 3.33e-06,
    "MEAN_MOTION_DDOT": 0
  },
  {
    "OBJECT_NAME": "ALOS-2",
    "OBJECT_ID": "2014-029A",
    "EPOCH": "2025-05-06T04:36:55.070784",
    "MEAN_MOTION": 14.79472074,
    "ECCENTRICITY": 0.0001494,
    "INCLINATION": 97.9207,
    "RA_OF_ASC_NODE": 224.196,
    "ARG_OF_PERICENTER": 104.4958,
    "MEAN_ANOMALY": 255.6419,
    "EPHEMERIS_TYPE": 0,
    "CLASSIFICATION_TYPE": "U",
    "NORAD_CAT_ID": 39766,
    "ELEMENT_SET_NO": 999,
    "REV_AT_EPOCH": 59143,
    "BSTAR": 0.00034378,
    "MEAN_MOTION_DOT": 2.517e-05,
    "MEAN_MOTION_DDOT": 0
  },
  {
    "OBJECT_NAME": "KAZEOSAT 2",
    "OBJECT_ID": "2014-033A",
    "EPOCH": "2025-05-06T03:17:15.046080",
    "MEAN_MOTION": 14.84540601,
    "ECCENTRICITY": 0.0008213,
    "INCLINATION": 97.5781,
    "RA_OF_ASC_NODE": 341.5805,
    "ARG_OF_PERICENTER": 214.2829,
    "MEAN_ANOMALY": 145.7857,
    "EPHEMERIS_TYPE": 0,
    "CLASSIFICATION_TYPE": "U",
    "NORAD_CAT_ID": 40010,
    "ELEMENT_SET_NO": 999,
    "REV_AT_EPOCH": 58855,
    "BSTAR": 0.00010589,
    "MEAN_MOTION_DOT": 8.43e-06,
    "MEAN_MOTION_DDOT": 0
  },
  {
    "OBJECT_NAME": "HODOYOSHI-4",
    "OBJECT_ID": "2014-033B",
    "EPOCH": "2025-05-06T03:53:53.566656",
    "MEAN_MOTION": 14.86639651,
    "ECCENTRICITY": 0.0023436,
    "INCLINATION": 97.5559,
    "RA_OF_ASC_NODE": 325.9188,
    "ARG_OF_PERICENTER": 210.5892,
    "MEAN_ANOMALY": 149.3959,
    "EPHEMERIS_TYPE": 0,
    "CLASSIFICATION_TYPE": "U",
    "NORAD_CAT_ID": 40011,
    "ELEMENT_SET_NO": 999,
    "REV_AT_EPOCH": 58831,
    "BSTAR": 0.00026588,
    "MEAN_MOTION_DOT": 2.32e-05,
    "MEAN_MOTION_DDOT": 0
  },
  {
    "OBJECT_NAME": "DEIMOS-2",
    "OBJECT_ID": "2014-033D",
    "EPOCH": "2025-05-06T04:31:37.940448",
    "MEAN_MOTION": 14.91925465,
    "ECCENTRICITY": 0.0001004,
    "INCLINATION": 97.6387,
    "RA_OF_ASC_NODE": 9.059,
    "ARG_OF_PERICENTER": 107.3589,
    "MEAN_ANOMALY": 252.774,
    "EPHEMERIS_TYPE": 0,
    "CLASSIFICATION_TYPE": "U",
    "NORAD_CAT_ID": 40013,
    "ELEMENT_SET_NO": 999,
    "REV_AT_EPOCH": 58987,
    "BSTAR": 0.00021399,
    "MEAN_MOTION_DOT": 2.111e-05,
    "MEAN_MOTION_DDOT": 0
  },
  {
    "OBJECT_NAME": "HODOYOSHI-3",
    "OBJECT_ID": "2014-033F",
    "EPOCH": "2025-05-05T20:11:09.727584",
    "MEAN_MOTION": 14.83890613,
    "ECCENTRICITY": 0.0032341,
    "INCLINATION": 97.6083,
    "RA_OF_ASC_NODE": 301.6537,
    "ARG_OF_PERICENTER": 254.8917,
    "MEAN_ANOMALY": 104.8719,
    "EPHEMERIS_TYPE": 0,
    "CLASSIFICATION_TYPE": "U",
    "NORAD_CAT_ID": 40015,
    "ELEMENT_SET_NO": 999,
    "REV_AT_EPOCH": 58718,
    "BSTAR": 0.00028243,
    "MEAN_MOTION_DOT": 2.314e-05,
    "MEAN_MOTION_DDOT": 0
  },
  {
    "OBJECT_NAME": "SPOT 7",
    "OBJECT_ID": "2014-034A",
    "EPOCH": "2025-05-06T03:30:22.644288",
    "MEAN_MOTION": 14.6041715,
    "ECCENTRICITY": 0.0001608,
    "INCLINATION": 98.1135,
    "RA_OF_ASC_NODE": 192.9818,
    "ARG_OF_PERICENTER": 90.1021,
    "MEAN_ANOMALY": 270.0364,
    "EPHEMERIS_TYPE": 0,
    "CLASSIFICATION_TYPE": "U",
    "NORAD_CAT_ID": 40053,
    "ELEMENT_SET_NO": 999,
    "REV_AT_EPOCH": 57773,
    "BSTAR": 0.00016317,
    "MEAN_MOTION_DOT": 7.44e-06,
    "MEAN_MOTION_DDOT": 0
  }
]