GAOFEN-1                
1 39150U 13018A   25126.18407179  .00001169  00000+0  17449-3 0  9998
2 39150  97.9506 200.4316 0018855 134.7659 225.5089 14.76538853648227
VNREDSAT 1              
1 39160U 13021B   25126.14015024  .00000946  00000+0  18564-3 0  9994
2 39160  97.9514 188.9230 0001364  89.0280 271.1079 14.64876105640715
ARIRANG-5 (KOMPSAT-5)   
1 39227U 13042A   25126.13479134  .00003296  00000+0  23959-3 0  9991
2 39227  97.6206 313.5226 0003828  87.9421 272.2244 15.04527773642713
SKYSAT-A                
1 39418U 13066C   25126.08838234  .00004166  00000+0  26048-3 0  9992
2 39418  97.4376 182.8666 0021157 278.8936  80.9898 15.09793852626992
DUBAISAT-2              
1 39419U 13066D   25126.14483836  .00006376  00000+0  43970-3 0  9992
2 39419  97.4326 123.9296 0011882 357.3648   2.7514 15.06090832625047
GPM-CORE                
1 39574U 14009C   25126.25667801  .00017859  00000+0  38559-3 0  9995
2 39574  64.9767 231.2300 0013890 262.3160  97.6403 15.44548591634975
SENTINEL-1A             
1 39634U 14016A   25126.19051046  .00000335  00000+0  80834-4 0  9996
2 39634  98.1803 134.6230 0001394  90.5341 269.6019 14.59199955590693
KAZEOSAT 1              
1 39731U 14024A   25126.21056828  .00000333  00000+0  11471-3 0  9997
2 39731  98.3599 202.7923 0001190  94.8935 265.2391 14.42034273579955
ALOS-2                  
1 39766U 14029A   25126.19230406  .00002517  00000+0  34378-3 0  9990
2 39766  97.9207 224.1960 0001494 104.4958 255.6419 14.79472074591439
KAZEOSAT 2              
1 40010U 14033A   25126.13697970  .00000843  00000+0  10589-3 0  9994
2 40010  97.5781 341.5805 0008213 214.2829 145.7857 14.84540601588553
HODOYOSHI-4             
1 40011U 14033B   25126.16242554  .00002320  00000+0  26588-3 0  9990
2 40011  97.5559 325.9188 0023436 210.5892 149.3959 14.86639651588313
DEIMOS-2                
1 40013U 14033D   25126.18863357  .00002111  00000+0  21399-3 0  9997
2 40013  97.6387   9.0590 0001004 107.3589 252.7740 14.91925465589871
HODOYOSHI-3             
1 40015U 14033F   25125.84108481  .00002314  00000+0  28243-3 0  9991
2 40015  97.6083 301.6537 0032341 254.8917 104.8719 14.83890613587181
SPOT 7                  
1 40053U 14034A   25126.14609542  .00000744  00000+0  16317-3 0  9996
2 40053  98.1135 192.9818 0001608  90.1021 270.0364 14.60417150577737
